[{"OBJECT_NAME":"RAISE 2","OBJECT_ID":"2021-102C","EPOCH":"2026-03-09T15:24:00.371808","MEAN_MOTION":15.20242049,"ECCENTRICITY":0.0007134,"INCLINATION":97.3388,"RA_OF_ASC_NODE":104.317,"ARG_OF_PERICENTER":273.4447,"MEAN_ANOMALY":86.5972,"EPHEMERIS_TYPE":0,"CLASSIFICATION_TYPE":"U","NORAD_CAT_ID":49397,"ELEMENT_SET_NO":999,"REV_AT_EPOCH":23830,"BSTAR":0.00039057,"MEAN_MOTION_DOT":8.413e-5,"MEAN_MOTION_DDOT":0},{"OBJECT_NAME":"CZ-2C DEB","OBJECT_ID":"2011-030E","EPOCH":"2026-03-09T22:02:28.057920","MEAN_MOTION":15.23147202,"ECCENTRICITY":0.00216086,"INCLINATION":98.1958,"RA_OF_ASC_NODE":48.5667,"ARG_OF_PERICENTER":313.6999,"MEAN_ANOMALY":74.4133,"EPHEMERIS_TYPE":0,"CLASSIFICATION_TYPE":"U","NORAD_CAT_ID":37734,"ELEMENT_SET_NO":999,"REV_AT_EPOCH":78227,"BSTAR":0.0029824689,"MEAN_MOTION_DOT":0.00071429,"MEAN_MOTION_DDOT":0}]
